{"type": "FeatureCollection", "features": [ {"type": "Feature", "properties": {"norad_id": 67020, "name": "STARLINK-36172", "group": "last-30-days", "lat": 57.41393118761277, "lon": 74.34406834161895, "alt_km": 328.52846097801466, "timestamp": "2025-12-24T16:52:40.181654+00:00", "meta": {"OBJECT_NAME": "STARLINK-36172", "OBJECT_ID": "2025-293T", "EPOCH": "2025-12-24T06:00:02.000160", "MEAN_MOTION": 15.80904532, "ECCENTRICITY": 0.00039857, "INCLINATION": 69.9917, "RA_OF_ASC_NODE": 290.3949, "ARG_OF_PERICENTER": 277.8645, "MEAN_ANOMALY": 141.0631, "EPHEMERIS_TYPE": 0, "CLASSIFICATION_TYPE": "U", "NORAD_CAT_ID": 67020, "ELEMENT_SET_NO": 999, "REV_AT_EPOCH": 207, "BSTAR": -0.0092978836, "MEAN_MOTION_DOT": -0.0158227, "MEAN_MOTION_DDOT": 0}, "tle": {"line1": "1 67020U 25293T   25358.25002315 -.01582270  00000+0 -92979-2 0  9991", "line2": "2 67020  69.9917 290.3949 0003985 277.8645 141.0631 15.80904532  2070"}}, "geometry": {"type": "Point", "coordinates": [74.34406834161895, 57.41393118761277]}}, {"type": "Feature", "properties": {"norad_id": 67021, "name": "STARLINK-36184", "group": "last-30-days", "lat": 55.436999537411424, "lon": 77.1637492866946, "alt_km": 328.70658104301765, "timestamp": "2025-12-24T16:52:40.181664+00:00", "meta": {"OBJECT_NAME": "STARLINK-36184", "OBJECT_ID": "2025-293U", "EPOCH": "2025-12-24T06:00:02.000160", "MEAN_MOTION": 15.80881567, "ECCENTRICITY": 0.00038762, "INCLINATION": 69.9919, "RA_OF_ASC_NODE": 290.3919, "ARG_OF_PERICENTER": 276.6425, "MEAN_ANOMALY": 144.8374, "EPHEMERIS_TYPE": 0, "CLASSIFICATION_TYPE": "U", "NORAD_CAT_ID": 67021, "ELEMENT_SET_NO": 999, "REV_AT_EPOCH": 207, "BSTAR": -0.0092971527, "MEAN_MOTION_DOT": -0.0158057, "MEAN_MOTION_DDOT": 0}, "tle": {"line1": "1 67021U 25293U   25358.25002315 -.01580570  00000+0 -92972-2 0  9996", "line2": "2 67021  69.9919 290.3919 0003876 276.6425 144.8374 15.80881567  2079"}}, "geometry": {"type": "Point", "coordinates": [77.1637492866946, 55.436999537411424]}}, {"type": "Feature", "properties": {"norad_id": 67022, "name": "STARLINK-36209", "group": "last-30-days", "lat": 53.136222750037724, "lon": 80.01848752587475, "alt_km": 328.9496834989859, "timestamp": "2025-12-24T16:52:40.181674+00:00", "meta": {"OBJECT_NAME": "STARLINK-36209", "OBJECT_ID": "2025-293V", "EPOCH": "2025-12-24T06:00:02.000160", "MEAN_MOTION": 15.80859251, "ECCENTRICITY": 0.00036495, "INCLINATION": 69.9916, "RA_OF_ASC_NODE": 290.3884, "ARG_OF_PERICENTER": 278.362, "MEAN_ANOMALY": 146.0029, "EPHEMERIS_TYPE": 0, "CLASSIFICATION_TYPE": "U", "NORAD_CAT_ID": 67022, "ELEMENT_SET_NO": 999, "REV_AT_EPOCH": 207, "BSTAR": -0.0093984294, "MEAN_MOTION_DOT": -0.01593936, "MEAN_MOTION_DDOT": 0}, "tle": {"line1": "1 67022U 25293V   25358.25002315 -.01593936  00000+0 -93984-2 0  9991", "line2": "2 67022  69.9916 290.3884 0003649 278.3620 146.0029 15.80859251  2078"}}, "geometry": {"type": "Point", "coordinates": [80.01848752587475, 53.136222750037724]}}, {"type": "Feature", "properties": {"norad_id": 67023, "name": "STARLINK-36191", "group": "last-30-days", "lat": 51.11660508772931, "lon": 82.22744430979122, "alt_km": 329.3060082414977, "timestamp": "2025-12-24T16:52:40.181686+00:00", "meta": {"OBJECT_NAME": "STARLINK-36191", "OBJECT_ID": "2025-293W", "EPOCH": "2025-12-24T06:00:02.000160", "MEAN_MOTION": 15.80839388, "ECCENTRICITY": 0.00038546, "INCLINATION": 69.9916, "RA_OF_ASC_NODE": 290.3849, "ARG_OF_PERICENTER": 275.5583, "MEAN_ANOMALY": 151.2724, "EPHEMERIS_TYPE": 0, "CLASSIFICATION_TYPE": "U", "NORAD_CAT_ID": 67023, "ELEMENT_SET_NO": 999, "REV_AT_EPOCH": 196, "BSTAR": -0.0094014283, "MEAN_MOTION_DOT": -0.01593309, "MEAN_MOTION_DDOT": 0}, "tle": {"line1": "1 67023U 25293W   25358.25002315 -.01593309  00000+0 -94014-2 0  9991", "line2": "2 67023  69.9916 290.3849 0003854 275.5583 151.2724 15.80839388  1961"}}, "geometry": {"type": "Point", "coordinates": [82.22744430979122, 51.11660508772931]}}, {"type": "Feature", "properties": {"norad_id": 67024, "name": "STARLINK-36192", "group": "last-30-days", "lat": 48.849967699712714, "lon": 84.44493058552486, "alt_km": 329.5439335522724, "timestamp": "2025-12-24T16:52:40.181696+00:00", "meta": {"OBJECT_NAME": "STARLINK-36192", "OBJECT_ID": "2025-293X", "EPOCH": "2025-12-24T06:00:02.000160", "MEAN_MOTION": 15.80797654, "ECCENTRICITY": 0.00037073, "INCLINATION": 69.9919, "RA_OF_ASC_NODE": 290.3822, "ARG_OF_PERICENTER": 275.0703, "MEAN_ANOMALY": 154.4902, "EPHEMERIS_TYPE": 0, "CLASSIFICATION_TYPE": "U", "NORAD_CAT_ID": 67024, "ELEMENT_SET_NO": 999, "REV_AT_EPOCH": 207, "BSTAR": -0.0093210703, "MEAN_MOTION_DOT": -0.0157856, "MEAN_MOTION_DDOT": 0}, "tle": {"line1": "1 67024U 25293X   25358.25002315 -.01578560  00000+0 -93211-2 0  9992", "line2": "2 67024  69.9919 290.3822 0003707 275.0703 154.4902 15.80797654  2077"}}, "geometry": {"type": "Point", "coordinates": [84.44493058552486, 48.849967699712714]}}, {"type": "Feature", "properties": {"norad_id": 67025, "name": "STARLINK-36178", "group": "last-30-days", "lat": 46.88463479102078, "lon": 86.18157573315796, "alt_km": 329.720836947954, "timestamp": "2025-12-24T16:52:40.181706+00:00", "meta": {"OBJECT_NAME": "STARLINK-36178", "OBJECT_ID": "2025-293Y", "EPOCH": "2025-12-24T06:00:02.000160", "MEAN_MOTION": 15.80784634, "ECCENTRICITY": 0.00036064, "INCLINATION": 69.9918, "RA_OF_ASC_NODE": 290.3792, "ARG_OF_PERICENTER": 273.4819, "MEAN_ANOMALY": 158.3846, "EPHEMERIS_TYPE": 0, "CLASSIFICATION_TYPE": "U", "NORAD_CAT_ID": 67025, "ELEMENT_SET_NO": 999, "REV_AT_EPOCH": 207, "BSTAR": -0.009336309, "MEAN_MOTION_DOT": -0.0157988, "MEAN_MOTION_DDOT": 0}, "tle": {"line1": "1 67025U 25293Y   25358.25002315 -.01579880  00000+0 -93363-2 0  9997", "line2": "2 67025  69.9918 290.3792 0003606 273.4819 158.3846 15.80784634  2075"}}, "geometry": {"type": "Point", "coordinates": [86.18157573315796, 46.88463479102078]}}, {"type": "Feature", "properties": {"norad_id": 67026, "name": "STARLINK-36176", "group": "last-30-days", "lat": 42.57347045178988, "lon": 89.5210789184902, "alt_km": 330.49459863975335, "timestamp": "2025-12-24T16:52:40.181716+00:00", "meta": {"OBJECT_NAME": "STARLINK-36176", "OBJECT_ID": "2025-293Z", "EPOCH": "2025-12-24T06:00:02.000160", "MEAN_MOTION": 15.80758976, "ECCENTRICITY": 0.00036553, "INCLINATION": 69.9915, "RA_OF_ASC_NODE": 290.3731, "ARG_OF_PERICENTER": 277.3047, "MEAN_ANOMALY": 159.5319, "EPHEMERIS_TYPE": 0, "CLASSIFICATION_TYPE": "U", "NORAD_CAT_ID": 67026, "ELEMENT_SET_NO": 999, "REV_AT_EPOCH": 207, "BSTAR": -0.0094456445, "MEAN_MOTION_DOT": -0.01594436, "MEAN_MOTION_DDOT": 0}, "tle": {"line1": "1 67026U 25293Z   25358.25002315 -.01594436  00000+0 -94456-2 0  9996", "line2": "2 67026  69.9915 290.3731 0003655 277.3047 159.5319 15.80758976  2074"}}, "geometry": {"type": "Point", "coordinates": [89.5210789184902, 42.57347045178988]}}, {"type": "Feature", "properties": {"norad_id": 67027, "name": "STARLINK-36171", "group": "last-30-days", "lat": 44.49351302300348, "lon": 88.10411165476079, "alt_km": 330.12677567177707, "timestamp": "2025-12-24T16:52:40.181728+00:00", "meta": {"OBJECT_NAME": "STARLINK-36171", "OBJECT_ID": "2025-293AA", "EPOCH": "2025-12-24T06:00:02.000160", "MEAN_MOTION": 15.80754116, "ECCENTRICITY": 0.00034891, "INCLINATION": 69.9914, "RA_OF_ASC_NODE": 290.3759, "ARG_OF_PERICENTER": 277.2259, "MEAN_ANOMALY": 157.4276, "EPHEMERIS_TYPE": 0, "CLASSIFICATION_TYPE": "U", "NORAD_CAT_ID": 67027, "ELEMENT_SET_NO": 999, "REV_AT_EPOCH": 207, "BSTAR": -0.0093477714, "MEAN_MOTION_DOT": -0.01579501, "MEAN_MOTION_DDOT": 0}, "tle": {"line1": "1 67027U 25293AA  25358.25002315 -.01579501  00000+0 -93478-2 0  9996", "line2": "2 67027  69.9914 290.3759 0003489 277.2259 157.4276 15.80754116  2074"}}, "geometry": {"type": "Point", "coordinates": [88.10411165476079, 44.49351302300348]}}, {"type": "Feature", "properties": {"norad_id": 67028, "name": "STARLINK-36132", "group": "last-30-days", "lat": 38.15098122966382, "lon": 92.440694815948, "alt_km": 331.2264586273186, "timestamp": "2025-12-24T16:52:40.181742+00:00", "meta": {"OBJECT_NAME": "STARLINK-36132", "OBJECT_ID": "2025-293AB", "EPOCH": "2025-12-24T06:00:02.000160", "MEAN_MOTION": 15.80696368, "ECCENTRICITY": 0.00037699, "INCLINATION": 69.9918, "RA_OF_ASC_NODE": 290.3672, "ARG_OF_PERICENTER": 276.9212, "MEAN_ANOMALY": 164.9478, "EPHEMERIS_TYPE": 0, "CLASSIFICATION_TYPE": "U", "NORAD_CAT_ID": 67028, "ELEMENT_SET_NO": 999, "REV_AT_EPOCH": 207, "BSTAR": -0.0093397811, "MEAN_MOTION_DOT": -0.01574905, "MEAN_MOTION_DDOT": 0}, "tle": {"line1": "1 67028U 25293AB  25358.25002315 -.01574905  00000+0 -93398-2 0  9991", "line2": "2 67028  69.9918 290.3672 0003769 276.9212 164.9478 15.80696368  2070"}}, "geometry": {"type": "Point", "coordinates": [92.440694815948, 38.15098122966382]}}, {"type": "Feature", "properties": {"norad_id": 67029, "name": "STARLINK-36190", "group": "last-30-days", "lat": 40.55697289460068, "lon": 90.90701219422904, "alt_km": 330.65516509367444, "timestamp": "2025-12-24T16:52:40.181752+00:00", "meta": {"OBJECT_NAME": "STARLINK-36190", "OBJECT_ID": "2025-293AC", "EPOCH": "2025-12-24T06:00:02.000160", "MEAN_MOTION": 15.8074261, "ECCENTRICITY": 0.00036484, "INCLINATION": 69.9919, "RA_OF_ASC_NODE": 290.3709, "ARG_OF_PERICENTER": 272.783, "MEAN_ANOMALY": 166.3467, "EPHEMERIS_TYPE": 0, "CLASSIFICATION_TYPE": "U", "NORAD_CAT_ID": 67029, "ELEMENT_SET_NO": 999, "REV_AT_EPOCH": 207, "BSTAR": -0.0094371349, "MEAN_MOTION_DOT": -0.01592116, "MEAN_MOTION_DDOT": 0}, "tle": {"line1": "1 67029U 25293AC  25358.25002315 -.01592116  00000+0 -94371-2 0  9998", "line2": "2 67029  69.9919 290.3709 0003648 272.7830 166.3467 15.80742610  2075"}}, "geometry": {"type": "Point", "coordinates": [90.90701219422904, 40.55697289460068]}}]}